{
  "Marcus Theatres": {
    "South MT": {
      "Fort Worth 76107": {
        "theaters": [
          {
            "name": "Movie Tavern West 7th",
            "zip": "76107"
          },
          {
            "name": "Movie Tavern Hulen 10",
            "zip": "76132"
          },
          {
            "name": "AMC DINE-IN Clearfork 8",
            "zip": "76109"
          },
          {
            "name": "AMC Lake Worth",
            "zip": "76135"
          },
          {
            "name": "AMC Hulen 10",
            "zip": "76132"
          },
          {
            "name": "AMC Palace 9",
            "zip": "76102"
          },
          {
            "name": "Regal Fossil Creek Stadium 11",
            "zip": "76137"
          },
          {
            "name": "America Cinemas Fort Worth",
            "zip": "76116"
          },
          {
            "name": "Studio Movie Grill Chisholm Trail Ranch",
            "zip": "76123"
          },
          {
            "name": "Cinemark Rave Ridgmar 13 and XD",
            "zip": "76116"
          }
        ]
      },
      "Denton 76201": {
        "theaters": [
          {
            "name": "Movie Tavern Denton",
            "zip": "76201"
          },
          {
            "name": "Alamo Drafthouse Denton",
            "zip": "76201"
          },
          {
            "name": "Cinemark Denton 14",
            "zip": "76210"
          }
        ]
      },
      "Little Rock 72223": {
        "theaters": [
          {
            "name": "Movie Tavern Little Rock",
            "zip": "72223"
          },
          {
            "name": "AMC Chenal",
            "zip": "72223"
          },
          {
            "name": "Cinemark Colonel Glenn",
            "zip": "72210"
          },
          {
            "name": "Riverdale 10 VIP Cinema",
            "zip": "72202"
          }
        ]
      },
      "Citiplace 70808": {
        "theaters": [
          {
            "name": "Movie Tavern Citiplace",
            "zip": "70808"
          },
          {
            "name": "AMC Mall of Louisiana",
            "zip": "70836"
          },
          {
            "name": "Cinemark Perkins Rowe",
            "zip": "70810"
          }
        ]
      },
      "Juban 70726": {
        "theaters": [
          {
            "name": "Movie Tavern Juban Crossing",
            "zip": "70726"
          },
          {
            "name": "AMC Baton Rouge",
            "zip": "70816"
          },
          {
            "name": "Celebrity Theatres Baton Rouge",
            "zip": "70816"
          }
        ]
      },
      "Covington 70433": {
        "theaters": [
          {
            "name": "Movie Tavern Covington",
            "zip": "70433"
          },
          {
            "name": "The Grand 16 - Slidell",
            "zip": "70461"
          }
        ]
      },
      "Roswell 30075": {
        "theaters": [
          {
            "name": "Movie Tavern Roswell",
            "zip": "30075"
          },
          {
            "name": "AMC Dine-In North Point",
            "zip": "30022"
          },
          {
            "name": "Aurora Cineplex",
            "zip": "30076"
          },
          {
            "name": "Regal Avalon",
            "zip": "30009"
          },
          {
            "name": "Regal Cherokee",
            "zip": "30188"
          },
          {
            "name": "Studio Movie Grill Marietta",
            "zip": "30062"
          },
          {
            "name": "Studio Movie Grill North Point",
            "zip": "30022"
          }
        ]
      },
      "Horizon Village 30024": {
        "theaters": [
          {
            "name": "Movie Tavern Horizon Village",
            "zip": "30024"
          },
          {
            "name": "AMC Colonial",
            "zip": "30043"
          },
          {
            "name": "AMC Sugarloaf Mills",
            "zip": "30043"
          },
          {
            "name": "Regal Mall of Georgia",
            "zip": "30519"
          },
          {
            "name": "Studio Movie Grill Duluth",
            "zip": "30096"
          }
        ]
      },
      "Tucker 30084": {
        "theaters": [
          {
            "name": "Movie Tavern Tucker",
            "zip": "30084"
          },
          {
            "name": "AMC North Dekalb 16",
            "zip": "30033"
          }
        ]
      }
    },
    "North MT": {
      "Aurora 80013": {
        "theaters": [
          {
            "name": "Movie Tavern Aurora",
            "zip": "80013"
          },
          {
            "name": "AMC Arapahoe Crossing",
            "zip": "80016"
          },
          {
            "name": "AMC Dine-In Southlands",
            "zip": "80016"
          },
          {
            "name": "Cinemark Century Aurora and XD",
            "zip": "80012"
          }
        ]
      },
      "Syracuse 13204": {
        "theaters": [
          {
            "name": "Movie Tavern Syracuse",
            "zip": "13204"
          },
          {
            "name": "Regal Destiny",
            "zip": "13204"
          }
        ]
      },
      "Williamsburg 23188": {
        "theaters": [
          {
            "name": "Movie Tavern Williamsburg",
            "zip": "23188"
          },
          {
            "name": "Regal New Town Stadium",
            "zip": "23188"
          }
        ]
      },
      "Brannon Crossing 40356": {
        "theaters": [
          {
            "name": "Movie Tavern Brannon Crossing",
            "zip": "40356"
          },
          {
            "name": "Cinemark Fayette Mall",
            "zip": "40503"
          },
          {
            "name": "Regal Hamburg",
            "zip": "40509"
          },
          {
            "name": "LexLive",
            "zip": "40511"
          }
        ]
      },
      "Flourtown 19031": {
        "theaters": [
          {
            "name": "Movie Tavern Flourtown",
            "zip": "19031"
          },
          {
            "name": "AMC 309 Cinema 9",
            "zip": "19454"
          },
          {
            "name": "Regal Warrington Crossing",
            "zip": "18976"
          },
          {
            "name": "AMC Plymouth Meeting",
            "zip": "19462"
          },
          {
            "name": "Regal Plymouth Meeting",
            "zip": "19462"
          },
          {
            "name": "Regal UA Main Street Theatre",
            "zip": "19127"
          }
        ]
      },
      "Exton 19341": {
        "theaters": [
          {
            "name": "Movie Tavern Exton",
            "zip": "19341"
          },
          {
            "name": "Regal Downingtown & IMAX",
            "zip": "19335"
          },
          {
            "name": "Regal Edgmont Square",
            "zip": "19073"
          },
          {
            "name": "AMC DINE-IN Painters Crossing 9",
            "zip": "19317"
          }
        ]
      },
      "Collegeville 19426": {
        "theaters": [
          {
            "name": "Movie Tavern Collegeville",
            "zip": "19426"
          },
          {
            "name": "Regal UA King of Prussia",
            "zip": "19406"
          }
        ]
      },
      "Trexlertown 18087": {
        "theaters": [
          {
            "name": "Movie Tavern Trexlertown",
            "zip": "18087"
          },
          {
            "name": "AMC Tilghman Square",
            "zip": "18104"
          },
          {
            "name": "AMC Center Valley",
            "zip": "18034"
          }
        ]
      }
    }
  }
}
