{
  "Marcus Theatres": {
    "Roy Van Horn": {
      "Fort Worth 76107": {
        "theaters": [
          {
            "name": "Movie Tavern West 7th Street",
            "zip": "76107"
          },
          {
            "name": "AMC Hulen 10",
            "zip": "76132"
          },
          {
            "name": "AMC DINE-IN Clearfork 8",
            "zip": "76109"
          },
          {
            "name": "AMC Lake Worth 14",
            "zip": "76135"
          },
          {
            "name": "AMC Hulen 10",
            "zip": "76132"
          },
          {
            "name": "AMC Palace 9",
            "zip": "76102"
          },
          {
            "name": "Regal Fossil Creek",
            "zip": "76137"
          },
          {
            "name": "America Cinemas Fort Worth",
            "zip": "76116"
          },
          {
            "name": "Studio Movie Grill Chisholm Trail Ranch",
            "zip": "76123"
          },
          {
            "name": "Cinemark Rave Ridgmar 13 and XD",
            "zip": "76116"
          }
        ]
      },
      "Denton 76201": {
        "theaters": [
          {
            "name": "Movie Tavern Denton",
            "zip": "76201"
          },
          {
            "name": "Alamo Drafthouse Denton",
            "zip": "76201"
          },
          {
            "name": "Cinemark Denton 14",
            "zip": "76210"
          },
          {
            "name": "AMC Highland Village 12",
            "zip": "75077"
          }
        ]
      },
      "Little Rock 72223": {
        "theaters": [
          {
            "name": "Movie Tavern Little Rock",
            "zip": "72223"
          },
          {
            "name": "AMC Chenal 9",
            "zip": "72223"
          },
          {
            "name": "Cinemark Colonel Glenn and XD",
            "zip": "72210"
          },
          {
            "name": "Riverdale 10 VIP Cinema",
            "zip": "72202"
          }
        ]
      },
      "Citiplace 70808": {
        "theaters": [
          {
            "name": "Movie Tavern Citiplace Cinema",
            "zip": "70808"
          },
          {
            "name": "AMC Mall of Louisiana 15",
            "zip": "70836"
          },
          {
            "name": "Cinemark Perkins Rowe and XD",
            "zip": "70810"
          }
        ]
      },
      "Juban 70726": {
        "theaters": [
          {
            "name": "Movie Tavern Juban Crossing",
            "zip": "70726"
          },
          {
            "name": "AMC Baton Rouge 16",
            "zip": "70816"
          },
          {
            "name": "Celebrity Theatres Baton Rouge",
            "zip": "70816"
          }
        ]
      },
      "Covington 70433": {
        "theaters": [
          {
            "name": "Movie Tavern Covington",
            "zip": "70433"
          },
          {
            "name": "The Grand 16 - Slidell",
            "zip": "70461"
          }
        ]
      },
      "Roswell 30075": {
        "theaters": [
          {
            "name": "Movie Tavern Roswell",
            "zip": "30075"
          },
          {
            "name": "Studio Movie Grill North Point",
            "zip": "30022"
          },
          {
            "name": "Aurora Cineplex",
            "zip": "30076"
          },
          {
            "name": "Regal Avalon",
            "zip": "30009"
          },
          {
            "name": "Regal Cherokee",
            "zip": "30188"
          },
          {
            "name": "Studio Movie Grill Marietta",
            "zip": "30062"
          },
          {
            "name": "Studio Movie Grill North Point",
            "zip": "30022"
          }
        ]
      },
      "Horizon Village 30024": {
        "theaters": [
          {
            "name": "Movie Tavern Horizon Village",
            "zip": "30024"
          },
          {
            "name": "AMC Colonial 18",
            "zip": "30043"
          },
          {
            "name": "AMC Sugarloaf Mills 18",
            "zip": "30043"
          },
          {
            "name": "Regal Mall of Georgia IMAX",
            "zip": "30519"
          },
          {
            "name": "Studio Movie Grill - Duluth",
            "zip": "30096"
          }
        ]
      },
      "Tucker 30084": {
        "theaters": [
          {
            "name": "Movie Tavern Tucker Cinema",
            "zip": "30084"
          },
          {
            "name": "AMC North Dekalb 16",
            "zip": "30033"
          }
        ]
      }
    },
    "Jason Buckland": {
      "Aurora 80013": {
        "theaters": [
          {
            "name": "Movie Tavern Aurora",
            "zip": "80013"
          },
          {
            "name": "AMC Arapahoe Crossing 16",
            "zip": "80016"
          },
          {
            "name": "AMC DINE-IN Southlands 16",
            "zip": "80016"
          },
          {
            "name": "Cinemark Century Aurora and XD",
            "zip": "80012"
          }
        ]
      },
      "Syracuse 13204": {
        "theaters": [
          {
            "name": "Movie Tavern Syracuse",
            "zip": "13204"
          },
          {
            "name": "Regal Destiny USA",
            "zip": "13204"
          }
        ]
      },
      "Williamsburg 23188": {
        "theaters": [
          {
            "name": "Movie Tavern Williamsburg",
            "zip": "23188"
          },
          {
            "name": "Regal New Town",
            "zip": "23188"
          }
        ]
      },
      "Brannon Crossing 40356": {
        "theaters": [
          {
            "name": "Movie Tavern Brannon Crossing",
            "zip": "40356"
          },
          {
            "name": "Cinemark Fayette Mall and XD",
            "zip": "40503"
          },
          {
            "name": "Regal Hamburg Pavilion IMAX & RPX",
            "zip": "40509"
          },
          {
            "name": "Krikorian Theatres at LexLive",
            "zip": "40511"
          }
        ]
      },
      "Flourtown 19031": {
        "theaters": [
          {
            "name": "Movie Tavern Flourtown",
            "zip": "19031"
          },
          {
            "name": "AMC 309 Cinema 9 ",
            "zip": "19454"
          },
          {
            "name": "Regal Warrington Crossing ScreenX, 4DX & IMAX",
            "zip": "18976"
          },
          {
            "name": "Regal Plymouth Meeting",
            "zip": "19462"
          },
          {
            "name": "Regal Plymouth Meeting",
            "zip": "19462"
          },
          {
            "name": "Regal UA Main Street Theatre",
            "zip": "19127"
          }
        ]
      },
      "Exton 19341": {
        "theaters": [
          {
            "name": "Movie Tavern Exton",
            "zip": "19341"
          },
          {
            "name": "Regal Downingtown & IMAX",
            "zip": "19335"
          },
          {
            "name": "Regal Edgmont Square",
            "zip": "19073"
          },
          {
            "name": "AMC DINE-IN Painters Crossing 9",
            "zip": "19317"
          }
        ]
      },
      "Collegeville 19426": {
        "theaters": [
          {
            "name": "Movie Tavern Collegeville Cinema",
            "zip": "19426"
          },
          {
            "name": "Regal UA King Of Prussia 4DX & IMAX",
            "zip": "19406"
          }
        ]
      },
      "Trexlertown 18087": {
        "theaters": [
          {
            "name": "Movie Tavern Trexlertown",
            "zip": "18087"
          },
          {
            "name": "AMC Tilghman Square 8",
            "zip": "18104"
          },
          {
            "name": "AMC Center Valley 16",
            "zip": "18034"
          }
        ]
      }
    },
    "Garrett Rawson": {
      "Addison Area 60101": {
        "theaters": [
          {
            "name": "Marcus Addison Cinema",
            "zip": "60101"
          },
          {
            "name": "AMC DINE-IN Rosemont 12",
            "zip": "60018"
          },
          {
            "name": "AMC DINE-IN Yorktown 18",
            "zip": "60148"
          },
          {
            "name": "AMC Norridge 6",
            "zip": "60706"
          },
          {
            "name": "AMC Oakbrook Center 12",
            "zip": "60523"
          },
          {
            "name": "AMC Oakbrook Center 4",
            "zip": "60523"
          },
          {
            "name": "AMC Loews Streets Of Woodfield 20",
            "zip": "60173"
          },
          {
            "name": "Cinemark Seven Bridges and IMAX",
            "zip": "60517"
          },
          {
            "name": "Cinemark Melrose Park",
            "zip": "60160"
          },
          {
            "name": "Classic Cinemas Elk Grove XQ",
            "zip": "60007"
          }
        ]
      },
      "Bloomington 61701": {
        "theaters": [
          {
            "name": "Marcus Bloomington Cinema + IMAX",
            "zip": "61701"
          },
          {
            "name": "AMC CLASSIC Normal 14",
            "zip": "61761"
          }
        ]
      },
      "Chicago Heights Area 60411": {
        "theaters": [
          {
            "name": "Marcus Chicago Heights Cinema",
            "zip": "60411"
          },
          {
            "name": "Marcus Country Club Hills Cinema",
            "zip": "60478"
          },
          {
            "name": "Marcus Chicago Heights Cinema",
            "zip": "60415"
          },
          {
            "name": "AMC Crestwood 18",
            "zip": "60418"
          },
          {
            "name": "AMC Crestwood 18",
            "zip": "60652"
          },
          {
            "name": "AMC Schererville 12",
            "zip": "46375"
          },
          {
            "name": "AMC Schererville 16",
            "zip": "46375"
          }
        ]
      },
      "Columbus 43147": {
        "theaters": [
          {
            "name": "Marcus Pickerington Cinema",
            "zip": "43147"
          },
          {
            "name": "AMC Dine-in Easton Town Center 30",
            "zip": "43219"
          },
          {
            "name": "AMC Grove City 14",
            "zip": "43123"
          },
          {
            "name": "AMC Dine-in Easton Town Center 30",
            "zip": "43056"
          },
          {
            "name": "Cinemark Stoneridge Plaza Movies 16",
            "zip": "43228"
          },
          {
            "name": "AMC Dine-in Easton Town Center 30",
            "zip": "43212"
          }
        ]
      },
      "Crosswoods Complex 43235": {
        "theaters": [
          {
            "name": "Marcus Crosswoods Cinema",
            "zip": "43235"
          },
          {
            "name": "AMC Dublin Village 18",
            "zip": "43017"
          },
          {
            "name": "Cinemark Polaris 18 and XD",
            "zip": "43240"
          },
          {
            "name": "Cinemark Stoneridge Plaza Movies 16",
            "zip": "43230"
          }
        ]
      },
      "Elgin Area 60123": {
        "theaters": [
          {
            "name": "Marcus Elgin Cinema",
            "zip": "60123"
          },
          {
            "name": "AMC Lake In The Hills 12",
            "zip": "60156"
          },
          {
            "name": "AMC South Barrington 24",
            "zip": "60010"
          },
          {
            "name": "Classic Cinemas Cinema 12 XQ",
            "zip": "60110"
          },
          {
            "name": "Classic Cinemas Charlestowne XQ",
            "zip": "60174"
          },
          {
            "name": "Emagine Batavia",
            "zip": "60510"
          },
          {
            "name": "Cinemark Spring Hill Mall and XD",
            "zip": "60118"
          }
        ]
      },
      "Gurnee Area 60031": {
        "theaters": [
          {
            "name": "Marcus Gurnee Mills Cinema",
            "zip": "60031"
          },
          {
            "name": "AMC Hawthorn 12",
            "zip": "60061"
          },
          {
            "name": "AMC DINE-IN Northbrook Court 14",
            "zip": "60062"
          },
          {
            "name": "AMC Hawthorn 12",
            "zip": "60056"
          },
          {
            "name": "Classic Cinemas Fox Lake XQ",
            "zip": "60014"
          }
        ]
      },
      "Orland Park Area 60467": {
        "theaters": [
          {
            "name": "Marcus Orland Park Cinemas",
            "zip": "60467"
          },
          {
            "name": "AMC Crestwood 18",
            "zip": "60418"
          },
          {
            "name": "AMC New Lenox 14",
            "zip": "60451"
          },
          {
            "name": "AMC Chicago Ridge 6",
            "zip": "60415"
          },
          {
            "name": "Emagine Frankfort ",
            "zip": "60423"
          }
        ]
      },
      "Milwaukee Area 53092": {
        "theaters": [
          {
            "name": "Marcus North Shore Cinema",
            "zip": "53092"
          },
          {
            "name": "ACX Entertainment Bayshore",
            "zip": "53217"
          },
          {
            "name": " Downer Theatre",
            "zip": "53211"
          },
          {
            "name": "Oriental Theatre",
            "zip": "53211"
          },
          {
            "name": "Marcus North Shore Cinema",
            "zip": "53129"
          },
          {
            "name": "Marcus Menomonee Falls Cinema",
            "zip": "53018"
          },
          {
            "name": "Marcus North Shore Cinema",
            "zip": "53151"
          },
          {
            "name": "Movie Tavern Brookfield",
            "zip": "53186"
          },
          {
            "name": "Marcus Menomonee Falls Cinema",
            "zip": "53051"
          },
          {
            "name": "Movie Tavern Brookfield",
            "zip": "53005"
          },
          {
            "name": "AMC Mayfair Mall 18",
            "zip": "53226"
          }
        ]
      },
      "Racine - Kenosha 53177": {
        "theaters": [
          {
            "name": "Marcus Cinema at the Renaissance",
            "zip": "53177"
          },
          {
            "name": "Marcus South Shore Cinema",
            "zip": "53154"
          },
          {
            "name": "Cinemark Tinseltown USA Kenosha",
            "zip": "53142"
          }
        ]
      },
      "Sheboygan Area 53081": {
        "theaters": [
          {
            "name": "Marcus Sheboygan Cinema",
            "zip": "53081"
          },
          {
            "name": "AMC Classic Manitowoc 10",
            "zip": "54220"
          }
        ]
      }
    },
    "Brian Shander": {
      "Arnold 63010": {
        "theaters": [
          {
            "name": "Marcus Arnold Cinemas",
            "zip": "63010"
          }
        ]
      },
      "Cape Girardeau 63701": {
        "theaters": [
          {
            "name": "Marcus Cape West Cinema",
            "zip": "63701"
          }
        ]
      },
      "Cedar Falls 50702": {
        "theaters": [
          {
            "name": "Marcus Crossroads Cinema",
            "zip": "50613"
          },
          {
            "name": "Marcus Crossroads Cinema",
            "zip": "50702"
          }
        ]
      },
      "Cedar Rapids 52402": {
        "theaters": [
          {
            "name": "Marcus Cedar Rapids Cinema",
            "zip": "52402"
          },
          {
            "name": "Collins Road Theatres",
            "zip": "52302"
          }
        ]
      },
      "Chesterfield 63005": {
        "theaters": [
          {
            "name": "Marcus Chesterfield Cinema",
            "zip": "63005"
          },
          {
            "name": "B&B Theatres Wentzville Tower 12",
            "zip": "63385"
          },
          {
            "name": "B&B Theatres Wildwood 10 & GS",
            "zip": "63040"
          },
          {
            "name": "Marcus Town Square Cinema",
            "zip": "63368"
          }
        ]
      },
      "Des Peres 63131": {
        "theaters": [
          {
            "name": "Marcus Des Peres Cinema",
            "zip": "63131"
          },
          {
            "name": "AMC Creve Coeur 12",
            "zip": "63141"
          },
          {
            "name": "AMC Esquire 7",
            "zip": "63117"
          },
          {
            "name": "B&B Theatres Creve Coeur West Olive 10",
            "zip": "63141"
          },
          {
            "name": "Chase Park Plaza Cinemas",
            "zip": "63117"
          }
        ]
      },
      "Iowa City 52241": {
        "theaters": [
          {
            "name": "Marcus Coral Ridge Cinema",
            "zip": "52241"
          },
          {
            "name": "Marcus Sycamore Cinema",
            "zip": "52240"
          }
        ]
      },
      "Lake Ozark 65049": {
        "theaters": [
          {
            "name": "Marcus Eagles Landing Cinema",
            "zip": "65049"
          },
          {
            "name": "VIP Lake West Cinemas",
            "zip": "65037"
          }
        ]
      },
      "Lincoln 68505": {
        "theaters": [
          {
            "name": "Marcus East Park Cinemas",
            "zip": "68505"
          },
          {
            "name": "Marcus Edgewood Cinemas",
            "zip": "68516"
          },
          {
            "name": "Marcus Lincoln Grand Cinemas",
            "zip": "68508"
          },
          {
            "name": "Marcus South Pointe Cinemas",
            "zip": "68516"
          }
        ]
      },
      "O'Fallon 62269": {
        "theaters": [
          {
            "name": "Marcus O'Fallon Cinema",
            "zip": "62269"
          },
          {
            "name": "AMC Edwardsville 12",
            "zip": "62025"
          },
          {
            "name": "Marcus O'Fallon Cinema",
            "zip": "62002"
          }
        ]
      },
      "Omaha 68164": {
        "theaters": [
          {
            "name": "Marcus Majestic Cinema of Omaha",
            "zip": "68164"
          },
          {
            "name": "Marcus Twin Creek Cinema",
            "zip": "68123"
          },
          {
            "name": "Marcus Village Pointe Cinema",
            "zip": "68118"
          },
          {
            "name": "ACX Cinema 12+",
            "zip": "68022"
          },
          {
            "name": "ACX Aksarben Cinema",
            "zip": "68106"
          },
          {
            "name": "Alamo Drafthouse Cinema La Vista",
            "zip": "68138"
          },
          {
            "name": "AMC Council Bluffs 17",
            "zip": "51501"
          },
          {
            "name": "AMC Westroads 14",
            "zip": "68114"
          },
          {
            "name": "B&B Theatres Omaha Oakview Plaza 14",
            "zip": "68144"
          }
        ]
      },
      "Ronnie's (St. Louis) 63126": {
        "theaters": [
          {
            "name": "Marcus Ronnie's Cinema + IMAX  ",
            "zip": "63126"
          },
          {
            "name": "Alamo Drafthouse City Foundry",
            "zip": "63110"
          },
          {
            "name": "B&B Theatres Wildwood 10 & GS",
            "zip": "63028"
          }
        ]
      },
      "St. Charles 63376": {
        "theaters": [
          {
            "name": "Marcus Mid Rivers Cinema",
            "zip": "63376"
          },
          {
            "name": "Marcus St. Charles Cinema",
            "zip": "63303"
          },
          {
            "name": "AMC Creve Coeur 12",
            "zip": "63141"
          },
          {
            "name": "AMC Streets of St. Charles 8",
            "zip": "63303"
          },
          {
            "name": "B&B Theatres Wentzville Tower 12",
            "zip": "63385"
          }
        ]
      }
    },
    "Tim Ward": {
      "Appleton 54914": {
        "theaters": [
          {
            "name": "Marcus Hollywood Cinemas",
            "zip": "54914"
          },
          {
            "name": "Marcus Valley Grand Cinema",
            "zip": "54915"
          },
          {
            "name": "Marcus Oshkosh Cinema",
            "zip": "54902"
          },
          {
            "name": "Marcus Hollywood Cinemas",
            "zip": "54937"
          }
        ]
      },
      "Duluth 55802": {
        "theaters": [
          {
            "name": "Marcus Duluth Cinema",
            "zip": "55802"
          },
          {
            "name": "Marcus Lakes Cinema",
            "zip": "55811"
          },
          {
            "name": "Premiere Theatres",
            "zip": "55720"
          },
          {
            "name": "The West Theatre",
            "zip": "55802"
          },
          {
            "name": "Zinema 2",
            "zip": "55802"
          }
        ]
      },
      "Fargo 58103": {
        "theaters": [
          {
            "name": "Marcus Century Cinema",
            "zip": "58103"
          },
          {
            "name": "Marcus West Acres Cinema",
            "zip": "58103"
          },
          {
            "name": "Marcus West Acres Cinema",
            "zip": "58102",
            "status": "Not on Fandango"
          }
        ]
      },
      "Green Bay 54304": {
        "theaters": [
          {
            "name": "Marcus Bay Park Cinemas",
            "zip": "54304"
          },
          {
            "name": "Marcus Green Bay East Cinema",
            "zip": "54311"
          }
        ]
      },
      "LaCrosse 54601": {
        "theaters": [
          {
            "name": "Marcus La Crosse Cinemas",
            "zip": "54601"
          },
          {
            "name": "Winona 7 Theatre",
            "zip": "54601",
            "status": "Not on Fandango"
          }
        ]
      },
      "Madison Area 53590": {
        "theaters": [
          {
            "name": "Marcus Palace Cinema",
            "zip": "53590"
          },
          {
            "name": "Marcus Point Cinemas",
            "zip": "53719"
          },
          {
            "name": "AMC Fitchburg 18",
            "zip": "53719"
          },
          {
            "name": "AMC CLASSIC Johnson Creek 12",
            "zip": "53038"
          },
          {
            "name": "Flix Brewhouse Madison",
            "zip": "53704"
          }
        ]
      },
      "Oakdale 55128": {
        "theaters": [
          {
            "name": "Marcus Oakdale Cinema",
            "zip": "55128"
          },
          {
            "name": "Alamo Drafthouse Woodbury Lakes",
            "zip": "55125"
          },
          {
            "name": "AMC Rosedale 14",
            "zip": "55113"
          },
          {
            "name": "Emagine White Bear ",
            "zip": "55127"
          },
          {
            "name": "Woodbury Theatre 10",
            "zip": "55125"
          }
        ]
      },
      "Ripon 54971": {
        "theaters": [
          {
            "name": "Marcus Campus Theatre",
            "zip": "54971"
          }
        ]
      },
      "Rochester 55904": {
        "theaters": [
          {
            "name": "Marcus Rochester Cinema + IMAX",
            "zip": "55904"
          }
        ]
      },
      "Rosemount 55068": {
        "theaters": [
          {
            "name": "Marcus Rosemount Cinema",
            "zip": "55068"
          },
          {
            "name": "AMC Inver Grove 16",
            "zip": "55076"
          },
          {
            "name": "AMC Inver Grove 16",
            "zip": "55306"
          },
          {
            "name": "Emagine Eagan",
            "zip": "55122"
          }
        ]
      },
      "Shakopee 55379": {
        "theaters": [
          {
            "name": "Marcus Southbridge Crossing Cinema",
            "zip": "55379"
          },
          {
            "name": "AMC Eden Prairie Mall 18",
            "zip": "55344"
          },
          {
            "name": "AMC Southdale 16",
            "zip": "55435"
          },
          {
            "name": "B&B Theatres Bloomington 13 at Mall of America",
            "zip": "55425"
          },
          {
            "name": "Emagine Eagan",
            "zip": "55122"
          }
        ]
      },
      "St. Cloud 56387": {
        "theaters": [
          {
            "name": "Marcus Parkwood Cinema",
            "zip": "56387"
          },
          {
            "name": "Quarry Cinema",
            "zip": "56320"
          }
        ]
      },
      "St. Louis Park 55416": {
        "theaters": [
          {
            "name": "Marcus West End Cinema",
            "zip": "55416"
          },
          {
            "name": "AMC Southdale 16",
            "zip": "55435"
          },
          {
            "name": "Emagine Willow Creek ",
            "zip": "55441"
          },
          {
            "name": "The Main Cinema",
            "zip": "55447"
          }
        ]
      },
      "Wausau Area 54474": {
        "theaters": [
          {
            "name": "Marcus Cedar Creek Cinema",
            "zip": "54474"
          },
          {
            "name": "Rogers Cinema Stevens Point 7",
            "zip": ""
          }
        ]
      }
    }
  }
}